HULIANWANG DIGUI 13A    
1 66412U 25258A   25341.72677953  .00000552  00000+0  32412-3 0  9998
2 66412  50.0044 283.1070 0009649 339.1083  20.9434 14.21250718  3949
HULIANWANG DIGUI 13B    
1 66413U 25258B   25341.73565714  .00000714  00000+0  40277-3 0  9999
2 66413  50.0028 283.1420 0008403 336.6318  23.4211 14.20568252  3946
HULIANWANG DIGUI 13C    
1 66414U 25258C   25341.87287205  .00000829  00000+0  45718-3 0  9993
2 66414  50.0056 282.5518 0008343 340.5242  19.5350 14.20411501  3968
HULIANWANG DIGUI 13D    
1 66415U 25258D   25341.65471126  .00000525  00000+0  31058-3 0  9992
2 66415  50.0047 283.3927 0009142 345.1739  14.8903 14.21453961  3938
HULIANWANG DIGUI 13E    
1 66416U 25258E   25340.88633988  .00000718  00000+0  39787-3 0  9994
2 66416  49.9960 286.6631 0005938  22.7186 337.3988 14.21474244  3822
HULIANWANG DIGUI 13F    
1 66417U 25258F   25340.60358688  .00000626  00000+0  35323-3 0  9996
2 66417  50.0001 287.8136 0010224 341.4358  18.6180 14.21933133  3786
HULIANWANG DIGUI 13G    
1 66418U 25258G   25341.72342143  .00000503  00000+0  29970-3 0  9995
2 66418  50.0013 283.0721 0008092 340.7706  19.2900 14.21580586  3942
HULIANWANG DIGUI 13H    
1 66419U 25258H   25341.86222851  .00000449  00000+0  27610-3 0  9992
2 66419  50.0007 282.4669 0006002 343.5985  16.4732 14.21412955  3967
HULIANWANG DIGUI 13J    
1 66420U 25258J   25341.86071956  .00000452  00000+0  27517-3 0  9992
2 66420  50.0028 282.4723 0006926 348.0835  11.9912 14.21871078  3956
CZ-12 R/B               
1 66421U 25258K   25341.93935017  .00000230  00000+0  11741-3 0  9994
2 66421  49.9961 278.7781 0064521 232.1450 127.3622 14.42320720  4028
STARLINK-35617          
1 66422U 25259A   25342.00004630  .00007840  00000+0  19490-3 0  9996
2 66422  43.0008  75.4208 0001205 264.6185 359.1496 15.40676374  5514
STARLINK-35618          
1 66423U 25259B   25342.00004630  .00008501  00000+0  21072-3 0  9991
2 66423  43.0009  75.3903 0001358 263.4923  12.7234 15.40674213  5515
