CCSDS_OMM_VERS = 2.0
CREATION_DATE  = 
ORIGINATOR     = 

OBJECT_NAME    = HULIANWANG DIGUI 13A
OBJECT_ID      = 2025-258A
CENTER_NAME    = EARTH
REF_FRAME      = TEME
TIME_SYSTEM    = UTC
MEAN_ELEMENT_THEORY = SGP/SGP4

EPOCH          = 2025-12-07T17:26:33.751392
MEAN_MOTION    = 14.21250718
ECCENTRICITY   = .00096493
INCLINATION    = 50.0044
RA_OF_ASC_NODE = 283.1070
ARG_OF_PERICENTER = 339.1083
MEAN_ANOMALY   = 20.9434

EPHEMERIS_TYPE = 0
CLASSIFICATION_TYPE = U
NORAD_CAT_ID   = 66412
ELEMENT_SET_NO = 999
REV_AT_EPOCH   = 394
BSTAR          = .32412473E-3
MEAN_MOTION_DOT = .552E-5
MEAN_MOTION_DDOT = 0

CCSDS_OMM_VERS = 2.0
CREATION_DATE  = 
ORIGINATOR     = 

OBJECT_NAME    = HULIANWANG DIGUI 13B
OBJECT_ID      = 2025-258B
CENTER_NAME    = EARTH
REF_FRAME      = TEME
TIME_SYSTEM    = UTC
MEAN_ELEMENT_THEORY = SGP/SGP4

EPOCH          = 2025-12-07T17:39:20.776896
MEAN_MOTION    = 14.20568252
ECCENTRICITY   = .00084033
INCLINATION    = 50.0028
RA_OF_ASC_NODE = 283.1420
ARG_OF_PERICENTER = 336.6318
MEAN_ANOMALY   = 23.4211

EPHEMERIS_TYPE = 0
CLASSIFICATION_TYPE = U
NORAD_CAT_ID   = 66413
ELEMENT_SET_NO = 999
REV_AT_EPOCH   = 394
BSTAR          = .40277083E-3
MEAN_MOTION_DOT = .714E-5
MEAN_MOTION_DDOT = 0

CCSDS_OMM_VERS = 2.0
CREATION_DATE  = 
ORIGINATOR     = 

OBJECT_NAME    = HULIANWANG DIGUI 13C
OBJECT_ID      = 2025-258C
CENTER_NAME    = EARTH
REF_FRAME      = TEME
TIME_SYSTEM    = UTC
MEAN_ELEMENT_THEORY = SGP/SGP4

EPOCH          = 2025-12-07T20:56:56.145120
MEAN_MOTION    = 14.20411501
ECCENTRICITY   = .00083434
INCLINATION    = 50.0056
RA_OF_ASC_NODE = 282.5518
ARG_OF_PERICENTER = 340.5242
MEAN_ANOMALY   = 19.5350

EPHEMERIS_TYPE = 0
CLASSIFICATION_TYPE = U
NORAD_CAT_ID   = 66414
ELEMENT_SET_NO = 999
REV_AT_EPOCH   = 396
BSTAR          = .45717883E-3
MEAN_MOTION_DOT = .829E-5
MEAN_MOTION_DDOT = 0

CCSDS_OMM_VERS = 2.0
CREATION_DATE  = 
ORIGINATOR     = 

OBJECT_NAME    = HULIANWANG DIGUI 13D
OBJECT_ID      = 2025-258D
CENTER_NAME    = EARTH
REF_FRAME      = TEME
TIME_SYSTEM    = UTC
MEAN_ELEMENT_THEORY = SGP/SGP4

EPOCH          = 2025-12-07T15:42:47.052864
MEAN_MOTION    = 14.21453961
ECCENTRICITY   = .00091421
INCLINATION    = 50.0047
RA_OF_ASC_NODE = 283.3927
ARG_OF_PERICENTER = 345.1739
MEAN_ANOMALY   = 14.8903

EPHEMERIS_TYPE = 0
CLASSIFICATION_TYPE = U
NORAD_CAT_ID   = 66415
ELEMENT_SET_NO = 999
REV_AT_EPOCH   = 393
BSTAR          = .31057861E-3
MEAN_MOTION_DOT = .525E-5
MEAN_MOTION_DDOT = 0

CCSDS_OMM_VERS = 2.0
CREATION_DATE  = 
ORIGINATOR     = 

OBJECT_NAME    = HULIANWANG DIGUI 13E
OBJECT_ID      = 2025-258E
CENTER_NAME    = EARTH
REF_FRAME      = TEME
TIME_SYSTEM    = UTC
MEAN_ELEMENT_THEORY = SGP/SGP4

EPOCH          = 2025-12-06T21:16:19.765632
MEAN_MOTION    = 14.21474244
ECCENTRICITY   = .00059389
INCLINATION    = 49.9960
RA_OF_ASC_NODE = 286.6631
ARG_OF_PERICENTER = 22.7186
MEAN_ANOMALY   = 337.3988

EPHEMERIS_TYPE = 0
CLASSIFICATION_TYPE = U
NORAD_CAT_ID   = 66416
ELEMENT_SET_NO = 999
REV_AT_EPOCH   = 382
BSTAR          = .39786891E-3
MEAN_MOTION_DOT = .718E-5
MEAN_MOTION_DDOT = 0

CCSDS_OMM_VERS = 2.0
CREATION_DATE  = 
ORIGINATOR     = 

OBJECT_NAME    = HULIANWANG DIGUI 13F
OBJECT_ID      = 2025-258F
CENTER_NAME    = EARTH
REF_FRAME      = TEME
TIME_SYSTEM    = UTC
MEAN_ELEMENT_THEORY = SGP/SGP4

EPOCH          = 2025-12-06T14:29:09.906432
MEAN_MOTION    = 14.21933133
ECCENTRICITY   = .00102248
INCLINATION    = 50.0001
RA_OF_ASC_NODE = 287.8136
ARG_OF_PERICENTER = 341.4358
MEAN_ANOMALY   = 18.6180

EPHEMERIS_TYPE = 0
CLASSIFICATION_TYPE = U
NORAD_CAT_ID   = 66417
ELEMENT_SET_NO = 999
REV_AT_EPOCH   = 378
BSTAR          = .35322897E-3
MEAN_MOTION_DOT = .626E-5
MEAN_MOTION_DDOT = 0

CCSDS_OMM_VERS = 2.0
CREATION_DATE  = 
ORIGINATOR     = 

OBJECT_NAME    = HULIANWANG DIGUI 13G
OBJECT_ID      = 2025-258G
CENTER_NAME    = EARTH
REF_FRAME      = TEME
TIME_SYSTEM    = UTC
MEAN_ELEMENT_THEORY = SGP/SGP4

EPOCH          = 2025-12-07T17:21:43.611552
MEAN_MOTION    = 14.21580586
ECCENTRICITY   = .00080927
INCLINATION    = 50.0013
RA_OF_ASC_NODE = 283.0721
ARG_OF_PERICENTER = 340.7706
MEAN_ANOMALY   = 19.2900

EPHEMERIS_TYPE = 0
CLASSIFICATION_TYPE = U
NORAD_CAT_ID   = 66418
ELEMENT_SET_NO = 999
REV_AT_EPOCH   = 394
BSTAR          = .29969823E-3
MEAN_MOTION_DOT = .503E-5
MEAN_MOTION_DDOT = 0

CCSDS_OMM_VERS = 2.0
CREATION_DATE  = 
ORIGINATOR     = 

OBJECT_NAME    = HULIANWANG DIGUI 13H
OBJECT_ID      = 2025-258H
CENTER_NAME    = EARTH
REF_FRAME      = TEME
TIME_SYSTEM    = UTC
MEAN_ELEMENT_THEORY = SGP/SGP4

EPOCH          = 2025-12-07T20:41:36.543264
MEAN_MOTION    = 14.21412955
ECCENTRICITY   = .0006002
INCLINATION    = 50.0007
RA_OF_ASC_NODE = 282.4669
ARG_OF_PERICENTER = 343.5985
MEAN_ANOMALY   = 16.4732

EPHEMERIS_TYPE = 0
CLASSIFICATION_TYPE = U
NORAD_CAT_ID   = 66419
ELEMENT_SET_NO = 999
REV_AT_EPOCH   = 396
BSTAR          = .27609853E-3
MEAN_MOTION_DOT = .449E-5
MEAN_MOTION_DDOT = 0

CCSDS_OMM_VERS = 2.0
CREATION_DATE  = 
ORIGINATOR     = 

OBJECT_NAME    = HULIANWANG DIGUI 13J
OBJECT_ID      = 2025-258J
CENTER_NAME    = EARTH
REF_FRAME      = TEME
TIME_SYSTEM    = UTC
MEAN_ELEMENT_THEORY = SGP/SGP4

EPOCH          = 2025-12-07T20:39:26.169984
MEAN_MOTION    = 14.21871078
ECCENTRICITY   = .00069266
INCLINATION    = 50.0028
RA_OF_ASC_NODE = 282.4723
ARG_OF_PERICENTER = 348.0835
MEAN_ANOMALY   = 11.9912

EPHEMERIS_TYPE = 0
CLASSIFICATION_TYPE = U
NORAD_CAT_ID   = 66420
ELEMENT_SET_NO = 999
REV_AT_EPOCH   = 395
BSTAR          = .27517133E-3
MEAN_MOTION_DOT = .452E-5
MEAN_MOTION_DDOT = 0

CCSDS_OMM_VERS = 2.0
CREATION_DATE  = 
ORIGINATOR     = 

OBJECT_NAME    = CZ-12 R/B
OBJECT_ID      = 2025-258K
CENTER_NAME    = EARTH
REF_FRAME      = TEME
TIME_SYSTEM    = UTC
MEAN_ELEMENT_THEORY = SGP/SGP4

EPOCH          = 2025-12-07T22:32:39.854688
MEAN_MOTION    = 14.42320720
ECCENTRICITY   = .0064521
INCLINATION    = 49.9961
RA_OF_ASC_NODE = 278.7781
ARG_OF_PERICENTER = 232.1450
MEAN_ANOMALY   = 127.3622

EPHEMERIS_TYPE = 0
CLASSIFICATION_TYPE = U
NORAD_CAT_ID   = 66421
ELEMENT_SET_NO = 999
REV_AT_EPOCH   = 402
BSTAR          = .11741431E-3
MEAN_MOTION_DOT = .23E-5
MEAN_MOTION_DDOT = 0

CCSDS_OMM_VERS = 2.0
CREATION_DATE  = 
ORIGINATOR     = 

OBJECT_NAME    = STARLINK-35617
OBJECT_ID      = 2025-259A
CENTER_NAME    = EARTH
REF_FRAME      = TEME
TIME_SYSTEM    = UTC
MEAN_ELEMENT_THEORY = SGP/SGP4

EPOCH          = 2025-12-08T00:00:04.000320
MEAN_MOTION    = 15.40676374
ECCENTRICITY   = .00012051
INCLINATION    = 43.0008
RA_OF_ASC_NODE = 75.4208
ARG_OF_PERICENTER = 264.6185
MEAN_ANOMALY   = 359.1496

EPHEMERIS_TYPE = 0
CLASSIFICATION_TYPE = U
NORAD_CAT_ID   = 66422
ELEMENT_SET_NO = 999
REV_AT_EPOCH   = 551
BSTAR          = .19490382E-3
MEAN_MOTION_DOT = .784E-4
MEAN_MOTION_DDOT = 0

CCSDS_OMM_VERS = 2.0
CREATION_DATE  = 
ORIGINATOR     = 

OBJECT_NAME    = STARLINK-35618
OBJECT_ID      = 2025-259B
CENTER_NAME    = EARTH
REF_FRAME      = TEME
TIME_SYSTEM    = UTC
MEAN_ELEMENT_THEORY = SGP/SGP4

EPOCH          = 2025-12-08T00:00:04.000320
MEAN_MOTION    = 15.40674213
ECCENTRICITY   = .00013582
INCLINATION    = 43.0009
RA_OF_ASC_NODE = 75.3903
ARG_OF_PERICENTER = 263.4923
MEAN_ANOMALY   = 12.7234

EPHEMERIS_TYPE = 0
CLASSIFICATION_TYPE = U
NORAD_CAT_ID   = 66423
ELEMENT_SET_NO = 999
REV_AT_EPOCH   = 551
BSTAR          = .21072235E-3
MEAN_MOTION_DOT = .8501E-4
MEAN_MOTION_DDOT = 0

